ORBCOMM FM37            
1 33064U 08031E   25295.22653025  .00002946  00000+0  41009-3 0  9993
2 33064  48.4373  99.4813 0005666 206.2059 324.0699 14.80287788932862
ORBCOMM FM40            
1 33065U 08031F   25295.14220029  .00004261  00000+0  54852-3 0  9991
2 33065  48.4401  81.7367 0006906 220.0288 310.1965 14.82699139932994
VESSELSAT 1             
1 37840U 11058C   25294.37039694  .00000445  00000+0  98122-4 0  9998
2 37840  19.9627  50.3328 0013671 134.1106 226.0425 14.11381838724151
ORBCOMM FM109           
1 40086U 14040A   25295.28006572  .00000965  00000+0  24254-3 0  9999
2 40086  47.0018 135.9671 0001878 216.7875 143.2882 14.58403309599617
ORBCOMM FM107           
1 40087U 14040B   25295.16506868  .00001036  00000+0  25724-3 0  9993
2 40087  47.0035 137.4221 0000920 164.7116 195.3798 14.58478229599675
ORBCOMM FM106           
1 40088U 14040C   25295.02667193  .00002035  00000+0  36783-3 0  9995
2 40088  47.0597 309.9784 0017639 295.3233  64.5831 14.69812197602134
ORBCOMM FM111           
1 40089U 14040D   25295.30342324  .00004101  00000+0  47125-3 0  9991
2 40089  46.9985 141.4582 0028674  82.2578 278.1574 14.87194986609149
ORBCOMM FM104           
1 40090U 14040E   25295.08791001  .00001112  00000+0  28298-3 0  9997
2 40090  47.0041 172.9307 0015930  63.6561 296.5958 14.56870233599124
